NORAD_CAT_ID,OBJECT_NAME,OBJECT_TYPE,EPOCH,MEAN_MOTION,ECCENTRICITY,INCLINATION,RA_OF_ASC_NODE,ARG_OF_PERICENTER,MEAN_ANOMALY,BSTAR,MEAN_MOTION_DOT,MEAN_MOTION_DDOT,TLE_LINE0,TLE_LINE1,TLE_LINE2,SEMIMAJOR_AXIS,PERIOD,APOGEE,PERIGEE,DECAYED
53031.0,STARLINK-4137,PAYLOAD,2024-05-14 19:54:33,15.08854775,0.0001425,53.2165,174.3064,82.9874,277.128,0.00034548,5.217e-05,0.0,0 STARLINK-4137,1 53031U 22076AX  24135.82955721  .00005217  00000-0  34548-3 0  9995,2 53031  53.2165 174.3064 0001425  82.9874 277.1280 15.08854775103372,6917.835,95.437,540.686,538.714,0.0
53031.0,STARLINK-4137,PAYLOAD,2024-05-15 02:16:05,15.08866818,0.0002398,53.2171,173.114,83.6435,276.483,-0.00011176,-2.068e-05,0.0,0 STARLINK-4137,1 53031U 22076AX  24136.09450923 -.00002068  00000-0 -11176-3 0  9994,2 53031  53.2171 173.1140 0002398  83.6435 276.4830 15.08866818103411,6917.798,95.436,541.322,538.005,0.0
53031.0,STARLINK-4137,PAYLOAD,2024-05-15 08:37:38,15.08851158,0.000111,53.2171,171.9239,90.2954,269.8165,-0.00029153,-4.926e-05,0.0,0 STARLINK-4137,1 53031U 22076AX  24136.35947079 -.00004926  00000-0 -29153-3 0  9995,2 53031  53.2171 171.9239 0001110  90.2954 269.8165 15.08851158103459,6917.846,95.437,540.479,538.943,0.0
53031.0,STARLINK-4137,PAYLOAD,2024-05-16 08:28:24,15.08851034,0.0001473,53.2172,167.4664,82.9202,277.1958,9.2356e-05,1.183e-05,0.0,0 STARLINK-4137,1 53031U 22076AX  24137.35306569  .00001183  00000-0  92356-4 0  9995,2 53031  53.2172 167.4664 0001473  82.9202 277.1958 15.08851034103138,6917.847,95.437,540.731,538.693,0.0
53031.0,STARLINK-4137,PAYLOAD,2024-05-16 19:36:06,15.08849446,0.0001465,53.2172,165.3843,87.5984,272.5176,7.933e-05,9.75e-06,0.0,0 STARLINK-4137,1 53031U 22076AX  24137.81674378  .00000975  00000-0  79330-4 0  9997,2 53031  53.2172 165.3843 0001465  87.5984 272.5176 15.08849446103677,6917.852,95.437,540.73,538.703,0.0
53031.0,STARLINK-4137,PAYLOAD,2024-05-17 05:08:25,15.08839797,0.0001531,53.2189,163.5992,99.2062,260.9103,0.00019118,2.756e-05,0.0,0 STARLINK-4137,1 53031U 22076AX  24138.21418851  .00002756  00000-0  19118-3 0  9990,2 53031  53.2189 163.5992 0001531  99.2062 260.9103 15.08839797103737,6917.881,95.438,540.805,538.687,0.0
53031.0,STARLINK-4137,PAYLOAD,2024-05-17 11:29:58,15.08840645,0.0001632,53.2184,162.4101,98.5062,261.6115,2.3728e-05,9e-07,0.0,0 STARLINK-4137,1 53031U 22076AX  24138.47914808  .00000090  00000-0  23728-4 0  9993,2 53031  53.2184 162.4101 0001632  98.5062 261.6115 15.08840645103304,6917.878,95.438,540.872,538.614,0.0
53031.0,STARLINK-4137,PAYLOAD,2024-05-18 08:09:59,15.08838728,0.0001629,53.2189,158.5449,94.1305,265.9873,4.3669e-05,4.07e-06,0.0,0 STARLINK-4137,1 53031U 22076AX  24139.34026975  .00000407  00000-0  43669-4 0  9997,2 53031  53.2189 158.5449 0001629  94.1305 265.9873 15.08838728103901,6917.884,95.438,540.876,538.622,0.0
53031.0,STARLINK-4137,PAYLOAD,2024-05-18 17:42:17,15.08840608,0.0001435,53.2176,156.7609,91.8159,268.2997,8.9546e-05,1.137e-05,0.0,0 STARLINK-4137,1 53031U 22076AX  24139.73770738  .00001137  00000-0  89546-4 0  9998,2 53031  53.2176 156.7609 0001435  91.8159 268.2997 15.08840608103498,6917.879,95.438,540.736,538.751,0.0
53031.0,STARLINK-4137,PAYLOAD,2024-05-19 04:50:01,15.08825736,0.0001403,53.2172,154.6793,86.9134,273.2019,6.1061e-06,-1.91e-06,0.0,0 STARLINK-4137,1 53031U 22076AX  24140.20140164 -.00000191  00000-0  61061-5 0  9999,2 53031  53.2172 154.6793 0001403  86.9134 273.2019 15.08825736104035,6917.924,95.438,540.76,538.818,0.0
53031.0,STARLINK-4137,PAYLOAD,2024-05-19 06:25:24,15.0882677,0.0001438,53.2173,154.382,87.593,272.5227,1.2679e-05,-8.6e-07,0.0,0 STARLINK-4137,1 53031U 22076AX  24140.26764131 -.00000086  00000-0  12679-4 0  9994,2 53031  53.2173 154.3820 0001438  87.5930 272.5227 15.08826770103573,6917.921,95.438,540.781,538.791,0.0
53031.0,STARLINK-4137,PAYLOAD,2024-05-19 17:33:05,15.08833792,0.0001441,53.2175,152.3003,88.6589,271.4568,5.1988e-05,5.39e-06,0.0,0 STARLINK-4137,1 53031U 22076AX  24140.73131857  .00000539  00000-0  51988-4 0  9997,2 53031  53.2175 152.3003 0001441  88.6589 271.4568 15.08833792104111,6917.899,95.438,540.761,538.767,0.0
53031.0,STARLINK-4137,PAYLOAD,2024-05-20 04:40:47,15.08840255,0.0001565,53.2183,150.2232,103.3062,256.8104,0.00017807,2.547e-05,0.0,0 STARLINK-4137,1 53031U 22076AX  24141.19499256  .00002547  00000-0  17807-3 0  9990,2 53031  53.2183 150.2232 0001565 103.3062 256.8104 15.08840255104181,6917.88,95.438,540.827,538.662,0.0
53031.0,STARLINK-4137,PAYLOAD,2024-05-20 06:16:10,15.08840908,0.0001547,53.2183,149.9258,102.1324,257.9841,0.00017889,2.56e-05,0.0,0 STARLINK-4137,1 53031U 22076AX  24141.26123232  .00002560  00000-0  17889-3 0  9991,2 53031  53.2183 149.9258 0001547 102.1324 257.9841 15.08840908103726,6917.878,95.437,540.813,538.672,0.0
53031.0,STARLINK-4137,PAYLOAD,2024-05-21 04:31:34,15.08835924,0.0001445,53.2172,145.7578,79.2533,280.8622,0.0001895,2.729e-05,0.0,0 STARLINK-4137,1 53031U 22076AX  24142.18859733  .00002729  00000-0  18950-3 0  9992,2 53031  53.2172 145.7578 0001445  79.2533 280.8622 15.08835924104338,6917.893,95.438,540.757,538.758,0.0
53031.0,STARLINK-4137,PAYLOAD,2024-05-21 09:17:44,15.08837003,0.0001321,53.2167,144.8656,83.5939,276.5204,0.00014906,2.085e-05,0.0,0 STARLINK-4137,1 53031U 22076AX  24142.38731851  .00002085  00000-0  14906-3 0  9996,2 53031  53.2167 144.8656 0001321  83.5939 276.5204 15.08837003103898,6917.89,95.438,540.668,538.841,0.0
53031.0,STARLINK-4137,PAYLOAD,2024-05-22 09:08:31,15.08838268,0.0001402,53.2172,140.4063,83.1069,277.0083,4.1218e-06,-2.22e-06,0.0,0 STARLINK-4137,1 53031U 22076AX  24143.38092208 -.00000222  00000-0  41218-5 0  9993,2 53031  53.2172 140.4063 0001402  83.1069 277.0083 15.08838268104513,6917.886,95.438,540.721,538.781,0.0
53031.0,STARLINK-4137,PAYLOAD,2024-05-23 05:48:31,15.08841932,0.000144,53.2173,136.5414,79.3119,280.8035,0.00010483,1.381e-05,0.0,0 STARLINK-4137,1 53031U 22076AX  24144.24203668  .00001381  00000-0  10483-3 0  9997,2 53031  53.2173 136.5414 0001440  79.3119 280.8035 15.08841932104640,6917.874,95.437,540.736,538.743,0.0
53031.0,STARLINK-4137,PAYLOAD,2024-05-24 05:39:19,15.0883757,0.0001299,53.2172,132.0804,87.5837,272.5304,5.9184e-05,6.54e-06,0.0,0 STARLINK-4137,1 53031U 22076AX  24145.23564042  .00000654  00000-0  59184-4 0  9997,2 53031  53.2172 132.0804 0001299  87.5837 272.5304 15.08837570104799,6917.888,95.438,540.651,538.854,0.0
53031.0,STARLINK-4137,PAYLOAD,2024-05-24 23:08:33,15.08840223,0.0001288,53.2166,128.8095,83.6093,276.5046,2.4634e-05,1.04e-06,0.0,0 STARLINK-4137,1 53031U 22076AX  24145.96427991  .00000104  00000-0  24634-4 0  9990,2 53031  53.2166 128.8095 0001288  83.6093 276.5046 15.08840223104433,6917.88,95.438,540.636,538.854,0.0
53031.0,STARLINK-4137,PAYLOAD,2024-05-25 08:40:52,15.08841274,0.0001368,53.2173,127.025,95.1914,264.9234,2.3469e-05,8.6e-07,0.0,0 STARLINK-4137,1 53031U 22076AX  24146.36171812  .00000086  00000-0  23469-4 0  9997,2 53031  53.2173 127.0250 0001368  95.1914 264.9234 15.08841274104969,6917.876,95.437,540.688,538.795,0.0
53031.0,STARLINK-4137,PAYLOAD,2024-05-26 05:20:53,15.08834269,0.0001257,53.2178,123.1583,89.4853,270.6283,6.88e-05,8.07e-06,0.0,0 STARLINK-4137,1 53031U 22076AX  24147.22284237  .00000807  00000-0  68800-4 0  9998,2 53031  53.2178 123.1583 0001257  89.4853 270.6283 15.08834269105094,6917.898,95.438,540.632,538.893,0.0
53031.0,STARLINK-4137,PAYLOAD,2024-05-26 08:31:39,15.0883755,0.0001358,53.2178,122.5646,103.1648,256.9495,6.8845e-05,8.08e-06,0.0,0 STARLINK-4137,1 53031U 22076AX  24147.35532082  .00000808  00000-0  68845-4 0  9996,2 53031  53.2178 122.5646 0001358 103.1648 256.9495 15.08837550104643,6917.888,95.438,540.692,538.813,0.0
53031.0,STARLINK-4137,PAYLOAD,2024-05-26 22:50:08,15.08834541,0.0001266,53.2175,119.8887,91.4938,268.62,3.6578e-05,2.94e-06,0.0,0 STARLINK-4137,1 53031U 22076AX  24147.95148527  .00000294  00000-0  36578-4 0  9996,2 53031  53.2175 119.8887 0001266  91.4938 268.6200 15.08834541104736,6917.897,95.438,540.638,538.886,0.0
53031.0,STARLINK-4137,PAYLOAD,2024-05-27 06:47:04,15.08836307,0.0001209,53.2178,118.4019,90.0662,270.0469,3.3363e-05,2.43e-06,0.0,0 STARLINK-4137,1 53031U 22076AX  24148.28268528  .00000243  00000-0  33363-4 0  9990,2 53031  53.2178 118.4019 0001209  90.0662 270.0469 15.08836307105251,6917.892,95.438,540.593,538.92,0.0
53031.0,STARLINK-4137,PAYLOAD,2024-05-28 08:13:14,15.08835886,0.0001192,53.2178,113.6439,88.3489,271.764,5.5075e-05,5.89e-06,0.0,0 STARLINK-4137,1 53031U 22076AX  24149.34252749  .00000589  00000-0  55075-4 0  9993,2 53031  53.2178 113.6439 0001192  88.3489 271.7640 15.08835886105410,6917.893,95.438,540.583,538.933,0.0
53031.0,STARLINK-4137,PAYLOAD,2024-05-29 06:28:37,15.08841487,0.0001198,53.2178,109.4806,103.2254,256.8872,7.164e-05,8.53e-06,0.0,0 STARLINK-4137,1 53031U 22076AX  24150.26988413  .00000853  00000-0  71640-4 0  9990,2 53031  53.2178 109.4806 0001198 103.2254 256.8872 15.08841487105082,6917.876,95.437,540.57,538.912,0.0
53031.0,STARLINK-4137,PAYLOAD,2024-05-29 06:28:38,15.08841062,0.0001235,53.218,109.4805,94.8441,265.2692,6.6869e-05,7.77e-06,0.0,0 STARLINK-4137,1 53031U 22076AX  24150.26988470  .00000777  00000-0  66869-4 0  9995,2 53031  53.2180 109.4805 0001235  94.8441 265.2692 15.08841062105082,6917.877,95.437,540.597,538.888,0.0
53031.0,STARLINK-4137,PAYLOAD,2024-05-30 04:44:01,15.08843803,0.000118,53.2175,105.3177,103.2313,256.8811,7.0985e-05,8.42e-06,0.0,0 STARLINK-4137,1 53031U 22076AX  24151.19724244  .00000842  00000-0  70985-4 0  9992,2 53031  53.2175 105.3177 0001180 103.2313 256.8811 15.08843803105696,6917.869,95.437,540.55,538.917,0.0
53031.0,STARLINK-4137,PAYLOAD,2024-05-30 06:19:24,15.0884442,0.0001186,53.2176,105.0201,102.3824,257.7301,8.1746e-05,1.014e-05,0.0,0 STARLINK-4137,1 53031U 22076AX  24151.26348209  .00001014  00000-0  81746-4 0  9992,2 53031  53.2176 105.0201 0001186 102.3824 257.7301 15.08844420105235,6917.867,95.437,540.552,538.911,0.0
